CANX-4                  
1 40055U 14034C   24274.03300557  .00004162  00000+0  57399-3 0  9996
2 40055  98.3869 113.1643 0012601 211.9894 148.0552 14.78719481552076
CANX-5                  
1 40056U 14034D   24273.63148689  .00004005  00000+0  55258-3 0  9996
2 40056  98.3872 112.7549 0012564 213.4130 146.6288 14.78726314542790
UKUBE-1                 
1 40074U 14037F   24274.07694518  .00020854  00000+0  18241-2 0  9995
2 40074  98.3448 210.6581 0006448  83.8988 276.2966 14.96753799554453
BRITE-PL2 (HEWELIUSZ)   
1 40119U 14049B   24274.22752279  .00007734  00000+0  80659-3 0  9999
2 40119  97.8859  13.5029 0015593  23.0559 337.1354 14.89951113548308
AEROCUBE 5C             
1 40965U 15058B   24273.75883426  .00010516  00000+0  91391-3 0  9992
2 40965  64.7708  40.2738 0191889 276.6970  81.2334 14.84249061272556
AEROCUBE 7              
1 40966U 15058C   24273.49554519  .00013075  00000+0  10856-2 0  9991
2 40966  64.7683  33.8061 0186099 276.4020  81.5927 14.86480835272602
FOX-1A (AO-85)          
1 40967U 15058D   24273.99631014  .00010891  00000+0  96596-3 0  9992
2 40967  64.7772  53.7997 0190404 272.3910  85.5412 14.83666271 20532
SINOD-D 1               
1 40968U 15058E   24273.81524513  .00014342  00000+0  12105-2 0  9997
2 40968  64.7779  46.0412 0184167 271.4133  86.5886 14.86072541 23356
SNAP-3 ALICE            
1 40970U 15058G   24274.21772702  .00046040  00000+0  27903-2 0  9992
2 40970  64.7719 355.2117 0149330 269.7592  88.6414 15.01393617 21527
LMRST-SAT               
1 40971U 15058H   24273.77344366  .00010300  00000+0  91211-3 0  9998
2 40971  64.7773  50.0337 0191784 273.8550  84.0651 14.83590535 20509
SNAP-3 EDDIE            
1 40972U 15058J   24274.20138376  .00048178  00000+0  28816-2 0  9994
2 40972  64.7692 348.4525 0149570 270.7629  87.6353 15.01805981 23621
PROPCUBE 3              
1 40973U 15058K   24274.06830927  .00013309  00000+0  11230-2 0  9990
2 40973  64.7720  35.9210 0188029 275.1517  82.8158 14.85648757 21603
BISONSAT                
1 40974U 15058L   24273.42022665  .00024092  00000+0  16885-2 0  9994
2 40974  64.7696   8.2237 0165995 273.2053  85.0081 14.94653363 21327
SNAP-3 JIMI             
1 40975U 15058M   24273.71335521  .00018719  00000+0  14602-2 0  9999
2 40975  64.7709  23.3504 0178708 274.2776  83.7933 14.89443608 20588
PROPCUBE 1 (FLORA)      
1 40976U 15058N   24273.44535923  .00008965  00000+0  82750-3 0  9990
2 40976  64.7751  67.0487 0190217 275.1918  82.7508 14.82369656 23244
SINOD-D 3               
1 40977U 15058P   24273.82245633  .00013549  00000+0  11872-2 0  9999
2 40977  64.7744  58.1148 0183859 274.2628  83.7491 14.84777252 21555
HORYU-4                 
1 41340U 16012D   24273.66395702  .00031122  00000+0  13597-2 0  9993
2 41340  31.0034  12.6900 0007201 324.5417  35.4745 15.20918098474049
RAVAN                   
1 41849U 16067B   24273.42227752  .00020254  00000+0  10059-2 0  9994
2 41849  98.0658  97.5185 0012431  36.1957 324.0113 15.17650498431773
CELTEE 1                
1 41850U 16067C   24273.24229087  .00014296  00000+0  91328-3 0  9997
2 41850  98.1087  88.2990 0000989 167.9262 192.1989 15.08766088431105
OPTICUBE 04             
1 41851U 16067D   24273.72060603  .00007637  00000+0  55442-3 0  9996
2 41851  98.0852  83.1905 0018805  68.0168 292.3053 15.04053509430946
AEROCUBE 8D             
1 41852U 16067E   24273.46683243  .00014492  00000+0  88462-3 0  9994
2 41852  98.1130  88.5887 0005531 116.4802 243.6993 15.10416619431125
AEROCUBE 8C             
1 41853U 16067F   24273.74758296  .00017722  00000+0  10798-2 0  9992
2 41853  98.0958  87.2092 0007871  51.8460 308.3476 15.10423158431152
PROMETHEUS 2-1          
1 41854U 16067G   24273.46903663  .00038605  00000+0  16331-2 0  9994
2 41854  98.1002  96.1999 0011000  61.1746 299.0591 15.23044021431571
PROMETHEUS 2-3          
1 41855U 16067H   24273.46858212  .00037961  00000+0  16104-2 0  9996
2 41855  98.0940  95.5870 0009338  71.8014 288.4236 15.22968067431572
CORVUS BC2              
1 42846U 17042X   24273.77028667  .00009486  00000+0  78285-3 0  9998
2 42846  97.3741  93.1599 0008552  72.8833 287.3327 14.99170120393106
CORVUS BC1              
1 42847U 17042Y   24273.45355891  .00009069  00000+0  74536-3 0  9998
2 42847  97.3750  93.2746 0009937  72.3079 287.9229 14.99331708393071
MIRATA                  
1 43015U 17073C   24273.64547203  .00051792  00000+0  20669-2 0  9998
2 43015  97.5766 157.5710 0147863 262.1514  96.2912 15.15416158372100
MAKERSAT 0              
1 43016U 17073D   24273.61414453  .00031109  00000+0  16294-2 0  9995
2 43016  97.5558 149.8584 0179847 288.7572  69.4214 15.02780472371563
GOMX-4B                 
1 43196U 18015E   24273.96894716  .00697160  23902-3  10766-2 0  9996
2 43196  97.5900  97.7275 0008040 268.8620  91.1739 16.04216472372034
SIRION PATHFINDER-2     
1 43759U 18099B   24274.03993620  .00013897  00000+0  98881-3 0  9990
2 43759  97.5176 327.2972 0009564 291.7426  68.2782 15.04718988318266
CORVUS BC4              
1 43767U 18099K   24273.72780821  .00010594  00000+0  77364-3 0  9995
2 43767  97.5023 323.8723 0009571   1.3712 358.7539 15.03805749318092
MOVE-II                 
1 43780U 18099Y   24273.76500934  .00058611  00000+0  24356-2 0  9993
2 43780  97.5093 336.2094 0004151 336.5430  23.5617 15.23579053318803
SPACEBEE-7              
1 43816U 18099BL  24273.64517313  .00035000  00000+0  17827-2 0  9991
2 43816  97.5379 336.3401 0007570 283.5058  76.5331 15.16678785318218
SPACEBEE-6              
1 43818U 18099BN  24273.48173403  .00109061  00000+0  29773-2 0  9995
2 43818  97.5283 343.8153 0006796 261.7814  98.2659 15.36971427318842
SHIELDS 1               
1 43850U 18104B   24273.81920995  .00037317  00000+0  85535-3 0  9994
2 43850  85.0239 211.8642 0012751  52.9373 307.3044 15.42504700322262
SONATE                  
1 44400U 19038Q   24273.74119390  .00053154  00000+0  12592-2 0  9993
2 44400  97.7160 273.0337 0017422  93.7220 266.6018 15.41431961290148
LUCKY-7                 
1 44406U 19038W   24273.59042748  .00137535  00000+0  16719-2 0  9995
2 44406  97.7005 279.0119 0013512  82.3547 277.9243 15.59996900290545
DUCHIFAT-3              
1 44854U 19089C   24273.98135429  .00041121  00000+0  17507-2 0  9991
2 44854  36.9539 130.4078 0009067 280.4399  79.5328 15.22040619264143
M2 PATHFINDER           
1 45727U 20037E   24273.74205040  .00008503  00000+0  71461-3 0  9994
2 45727  97.7809  89.7566 0011184 132.4273 227.7897 14.98495183231599
NETSAT-4                
1 46504U 20068U   24273.64121226  .00026529  00000+0  12794-2 0  9995
2 46504  97.8159 233.8935 0009905  20.9572 339.2065 15.18636766220002
NETSAT-3                
1 46505U 20068V   24274.12794365  .00024777  00000+0  12144-2 0  9992
2 46505  97.8133 233.7707 0009697  28.5980 331.5783 15.18090304220066
NETSAT-1                
1 46506U 20068W   24273.45294588  .00017248  00000+0  90646-3 0  9999
2 46506  97.8153 232.2622 0009278  39.8242 320.3669 15.15721614219902
NETSAT-2                
1 46507U 20068X   24274.12232100  .00025689  00000+0  12385-2 0  9998
2 46507  97.8142 233.9931 0008471  44.5229 315.6684 15.18666499220025
WILDTRACKCUBE-SIMBA     
1 47941U 21022K   24274.19203616  .00039391  00000+0  15050-2 0  9996
2 47941  97.4451 170.2578 0016019 127.4833 232.7864 15.26390991194452
GRBALPHA                
1 47959U 21022AD  24274.19443016  .00067209  00000+0  20622-2 0  9995
2 47959  97.4447 172.9691 0015071 116.4940 243.7850 15.33390763193456
BEESAT-8                
1 48085U 21022AP  24273.26239888  .00075049  00000+0  16866-2 0  9999
2 48085  97.4669 177.0315 0014059 104.8455 255.4351 15.42972214193867
LEDSAT                  
1 49069U 21073D   24274.13849983  .00044378  00000+0  14768-2 0  9998
2 49069  97.4274 344.9029 0015952 269.7020  90.2393 15.30889543172475
ROBUSTA-1F (MTCUBE 2)   
1 53109U 22080E   24273.68204372 -.00000003  00000+0  00000+0 0  9992
2 53109  70.1242 155.7955 0008274  66.7939 293.3591  6.42583948 51876
SITRO-AIS 5 (KATYS)     
1 57176U 23091L   24274.21007088  .00021848  00000+0  12909-2 0  9991
2 57176  97.6017 325.6144 0018394 121.0318 239.2721 15.11364315 69342
SITRO-AIS 6 (CHIRKIN)   
1 57192U 23091AC  24274.19161319  .00020875  00000+0  12327-2 0  9997
2 57192  97.6010 325.6264 0018216 120.9889 239.3133 15.11398658 69345
SITRO-AIS 8 (ANOKHIN)   
1 57193U 23091AD  24274.19740132  .00023933  00000+0  13916-2 0  9997
2 57193  97.6009 325.7621 0017891 121.7510 238.5466 15.11932493 69352
SITRO-AIS 7 (FARTUSHNIY)
1 57194U 23091AE  24274.20043233  .00021029  00000+0  12440-2 0  9993
2 57194  97.6012 325.6066 0018133 121.4086 238.8920 15.11332781 69345
SITRO-AIS 10 (BURDAEV)  
1 57199U 23091AK  24274.16663958  .00026964  00000+0  14805-2 0  9995
2 57199  97.6023 326.9628 0013090 110.5130 249.7508 15.14027604 69426
SITRO-AIS 9 (SHCHUKIN)  
1 57201U 23091AM  24274.16661734  .00027036  00000+0  14858-2 0  9998
2 57201  97.6019 326.9330 0013066 110.4842 249.7793 15.13994892 69424
SITRO-AIS 12 (SMIRENNIY)
1 57204U 23091AQ  24274.18174870  .00026207  00000+0  14326-2 0  9992
2 57204  97.6024 327.1222 0012906 105.1258 255.1402 15.14192530 69439
SITRO-AIS 11 (SHEFFER)  
1 57208U 23091AU  24274.16043453  .00026441  00000+0  14403-2 0  9992
2 57208  97.6027 327.1368 0012870 105.3008 254.9647 15.14317552 69433
ROBUSTA-1E (ENSO)       
1 58470U 23185J   24274.20195049  .00046738  00000+0  16465-2 0  9993
2 58470  97.4152 340.1306 0010164 263.5422  96.4661 15.29097817 46154
SITRO-AIS 29            
1 59052U 24039B   24274.17226010  .00073006  00000+0  20487-2 0  9995
2 59052  97.4006 235.9032 0013931 184.3524 175.7601 15.36197009 32662
